0 FENGYUN 1C DEB
1 31417U 99025BTD 13280.88428656  .00004552  00000-0  16093-2 0  8550
2 31417 099.0531 033.9885 0063019 106.7509 020.7579 14.34027439336131
0 FENGYUN 1C DEB
1 31417U 99025BTD 13282.26104296  .00007770  00000-0  27335-2 0  8562
2 31417 099.0529 035.4294 0062708 102.7486 288.2784 14.34047278336337
0 FENGYUN 1C DEB
1 31417U 99025BTD 13284.28911988  .00007150  00000-0  25171-2 0  8579
2 31417 099.0521 037.5517 0062081 096.9674 318.3191 14.34067750336623
0 FENGYUN 1C DEB
1 31417U 99025BTD 13285.77401197  .00005196  00000-0  18336-2 0  8584
2 31417 099.0527 039.1059 0062050 092.5902 064.3786 14.34085012336832
0 FENGYUN 1C DEB
1 31417U 99025BTD 13288.26129971  .00008231  00000-0  28927-2 0  8599
2 31417 099.0539 041.7091 0061790 085.3398 305.6238 14.34113390337193
0 FENGYUN 1C DEB
1 31417U 99025BTD 13291.26681453  .00006625  00000-0  23306-2 0  8604
2 31417 099.0576 044.8567 0061575 076.7488 342.5682 14.34151532337622
0 FENGYUN 1C DEB
1 31417U 99025BTD 13292.81975154  .00006550  00000-0  23032-2 0  8614
2 31417 099.0578 046.4840 0061816 072.1765 080.3990 14.34170384337841
0 FENGYUN 1C DEB
1 31417U 99025BTD 13294.26697081  .00007286  00000-0  25601-2 0  8627
2 31417 099.0543 047.9955 0061263 067.6183 352.7931 14.34185646338057
